     2.10           G: GLONASS NAV DATA                     RINEX VERSION / TYPE
teqc  2015Jun23                         20210810 01:25:47UTCPGM / RUN BY / DATE
Linux 2.4.21-27.ELsmp|Opteron|gcc -static|Linux x86_64|=+   COMMENT
  2021     7    17    1.210719347000D-08                    CORR TO SYSTEM TIME
                                                            END OF HEADER
 4 21  7 18 20 15  0.0 9.637046605349D-05 1.818989403546D-12 7.200000000000D+04
    2.552199707031D+03-2.077131271362D-01 0.000000000000D+00 0.000000000000D+00
    2.360559960938D+04-1.271117210388D+00-0.000000000000D+00 6.000000000000D+00
   -9.288745605469D+03-3.277807235718D+00 0.000000000000D+00 0.000000000000D+00
 5 21  7 18 20 15  0.0 7.557030767202D-05 9.094947017729D-13 7.200000000000D+04
    1.038158984375D+04 4.731645584106D-01-0.000000000000D+00 0.000000000000D+00
    2.191597851562D+04 9.853048324585D-01-9.313225746155D-10 1.000000000000D+00
    7.889087890625D+03-3.366590499878D+00-1.862645149231D-09 0.000000000000D+00
15 21  7 18 20 15  0.0 1.026140525937D-04 0.000000000000D+00 7.200000000000D+04
    3.734013671875D+02-3.041707038879D+00-1.862645149231D-09 0.000000000000D+00
    1.131760302734D+04-7.193479537964D-01-0.000000000000D+00 0.000000000000D+00
    2.288216308594D+04 4.053230285645D-01-1.862645149231D-09 0.000000000000D+00
17 21  7 18 20 15  0.0 4.422068595886D-04 2.728484105319D-12 7.200000000000D+04
   -1.856338085938D+04 5.270290374756D-01-2.793967723846D-09 0.000000000000D+00
    1.709591943359D+04-2.310142517090D-01-0.000000000000D+00 4.000000000000D+00
    3.869499511719D+03 3.545424461365D+00 9.313225746155D-10 0.000000000000D+00
18 21  7 18 20 15  0.0 8.387863636017D-05 9.094947017729D-13 7.200000000000D+04
   -1.059944238281D+04-1.064686775208D+00-9.313225746155D-10 0.000000000000D+00
    1.936597802734D+04 1.401400566101D+00-0.000000000000D+00-3.000000000000D+00
   -1.272967626953D+04 3.020963668823D+00 1.862645149231D-09 0.000000000000D+00
19 21  7 18 20 15  0.0-1.520197838545D-04-9.094947017729D-13 7.251000000000D+04
    1.918037597656D+03-2.122580528259D+00 9.313225746155D-10 0.000000000000D+00
    1.211413378906D+04 2.215061187744D+00-0.000000000000D+00 3.000000000000D+00
   -2.237471191406D+04 1.016795158386D+00 1.862645149231D-09 0.000000000000D+00
19 21  7 18 20 45  0.0-1.520216464996D-04-9.094947017729D-13 7.380000000000D+04
   -1.394907226562D+03-1.539511680603D+00 0.000000000000D+00 0.000000000000D+00
    1.615210791016D+04 2.223317146301D+00-0.000000000000D+00 3.000000000000D+00
   -1.970407080078D+04 1.931339263916D+00 1.862645149231D-09 0.000000000000D+00
 3 21  7 18 20 45  0.0 3.974977880716D-05 0.000000000000D+00 7.380000000000D+04
   -8.739843261719D+03-1.283840179443D+00 0.000000000000D+00 0.000000000000D+00
    7.027422851562D+03-2.869003295898D+00 0.000000000000D+00 5.000000000000D+00
   -2.286329736328D+04-3.950023651123D-01 2.793967723846D-09 0.000000000000D+00
 4 21  7 18 20 45  0.0 9.637326002121D-05 1.818989403546D-12 7.380000000000D+04
    1.751983398438D+03-7.047462463379D-01 0.000000000000D+00 0.000000000000D+00
    2.071269921875D+04-1.905191421509D+00-0.000000000000D+00 6.000000000000D+00
   -1.475268261719D+04-2.753686904907D+00 9.313225746155D-10 0.000000000000D+00
 5 21  7 18 20 45  0.0 7.557123899460D-05 9.094947017729D-13 7.380000000000D+04
    1.107505175781D+04 2.556209564209D-01-0.000000000000D+00 0.000000000000D+00
    2.291120751953D+04 1.243772506714D-01-9.313225746155D-10 1.000000000000D+00
    1.602294433594D+03-3.573340415955D+00-9.313225746155D-10 0.000000000000D+00
17 21  7 18 20 45  0.0 4.422124475241D-04 2.728484105319D-12 7.380000000000D+04
   -1.717902636719D+04 9.700040817261D-01-3.725290298462D-09 0.000000000000D+00
    1.600722802734D+04-9.920034408569D-01 0.000000000000D+00 4.000000000000D+00
    1.001979638672D+04 3.243966102600D+00 0.000000000000D+00 0.000000000000D+00
18 21  7 18 20 45  0.0 8.388049900532D-05 9.094947017729D-13 7.380000000000D+04
   -1.188112451172D+04-3.743410110474D-01-1.862645149231D-09 0.000000000000D+00
    2.147154394531D+04 8.958997726440D-01 0.000000000000D+00-3.000000000000D+00
   -6.868820800781D+03 3.448699951172D+00 9.313225746155D-10 0.000000000000D+00
15 21  7 18 20 45  0.0 1.026140525937D-04 0.000000000000D+00 7.395000000000D+04
   -5.192699707031D+03-3.091941833496D+00-2.793967723846D-09 0.000000000000D+00
    1.042090917969D+04-2.697610855103D-01 0.000000000000D+00 0.000000000000D+00
    2.272025830078D+04-5.840730667114D-01-9.313225746155D-10 0.000000000000D+00
19 21  7 18 21 15  0.0-1.520244404674D-04-9.094947017729D-13 7.560000000000D+04
   -3.590320312500D+03-9.001417160034D-01-0.000000000000D+00 0.000000000000D+00
    1.993948974609D+04 1.935544967651D+00 0.000000000000D+00 3.000000000000D+00
   -1.551158447266D+04 2.696777343750D+00 1.862645149231D-09 0.000000000000D+00
 4 21  7 18 21 15  0.0 9.637605398893D-05 1.818989403546D-12 7.560000000000D+04
   -3.957958984375D+01-1.292262077332D+00 0.000000000000D+00 0.000000000000D+00
    1.690289990234D+04-2.280705451965D+00-0.000000000000D+00 6.000000000000D+00
   -1.907348144531D+04-2.015903472900D+00 1.862645149231D-09 0.000000000000D+00
 5 21  7 18 21 15  0.0 7.557217031717D-05 9.094947017729D-13 7.560000000000D+04
    1.116149169922D+04-1.943569183350D-01-0.000000000000D+00 0.000000000000D+00
    2.241216894531D+04-6.563549041748D-01-9.313225746155D-10 1.000000000000D+00
   -4.808523925781D+03-3.503462791443D+00-0.000000000000D+00 0.000000000000D+00
17 21  7 18 21 15  0.0 4.422189667821D-04 2.728484105319D-12 7.560000000000D+04
   -1.522970898438D+04 1.150624275208D+00-3.725290298462D-09 0.000000000000D+00
    1.351103173828D+04-1.775517463684D+00 9.313225746155D-10 4.000000000000D+00
    1.539719042969D+04 2.692175865173D+00-0.000000000000D+00 0.000000000000D+00
18 21  7 18 21 15  0.0 8.388236165047D-05 9.094947017729D-13 7.560000000000D+04
   -1.203132421875D+04 1.765193939209D-01-2.793967723846D-09 0.000000000000D+00
    2.245935302734D+04 1.719188690186D-01 0.000000000000D+00-3.000000000000D+00
   -4.752377929688D+02 3.609004974365D+00 9.313225746155D-10 0.000000000000D+00
15 21  7 18 21 15  0.0 1.026140525937D-04 0.000000000000D+00 7.593000000000D+04
   -1.057417285156D+04-2.838039398193D+00-3.725290298462D-09 0.000000000000D+00
    1.033998242188D+04 1.691246032715D-01 9.313225746155D-10 0.000000000000D+00
    2.080644824219D+04-1.528668403625D+00-0.000000000000D+00 0.000000000000D+00
19 21  7 18 21 45  0.0-1.520263031125D-04-9.094947017729D-13 7.740000000000D+04
   -4.670635253906D+03-3.189897537231D-01-9.313225746155D-10 0.000000000000D+00
    2.295207275391D+04 1.369317054749D+00 0.000000000000D+00 3.000000000000D+00
   -1.012092138672D+04 3.254006385803D+00 1.862645149231D-09 0.000000000000D+00
 4 21  7 18 21 45  0.0 9.637884795666D-05 1.818989403546D-12 7.740000000000D+04
   -2.889454101562D+03-1.861886978149D+00 0.000000000000D+00 0.000000000000D+00
    1.267786132812D+04-2.364971160889D+00 0.000000000000D+00 6.000000000000D+00
   -2.191578564453D+04-1.121619224548D+00 2.793967723846D-09 0.000000000000D+00
 5 21  7 18 21 45  0.0 7.557310163975D-05 9.094947017729D-13 7.740000000000D+04
    1.027236474609D+04-8.148880004883D-01-0.000000000000D+00 0.000000000000D+00
    2.065756591797D+04-1.256105422974D+00-0.000000000000D+00 1.000000000000D+00
   -1.084692089844D+04-3.162215232849D+00 9.313225746155D-10 0.000000000000D+00
15 21  7 18 21 45  0.0 1.026140525937D-04-0.000000000000D+00 7.740000000000D+04
   -1.524522119141D+04-2.311491966248D+00-3.725290298462D-09 0.000000000000D+00
    1.096126025391D+04 4.945468902588D-01 9.313225746155D-10 0.000000000000D+00
    1.728773193359D+04-2.355761528015D+00-0.000000000000D+00 0.000000000000D+00
17 21  7 18 21 45  0.0 4.422254860401D-04 2.728484105319D-12 7.740000000000D+04
   -1.319594921875D+04 1.067498207092D+00-2.793967723846D-09 0.000000000000D+00
    9.672150878906D+03-2.464768409729D+00 9.313225746155D-10 4.000000000000D+00
    1.958651708984D+04 1.932402610779D+00-0.000000000000D+00 0.000000000000D+00
18 21  7 18 21 45  0.0 8.388422429562D-05 9.094947017729D-13 7.740000000000D+04
   -1.137773193359D+04 5.086345672607D-01-2.793967723846D-09 0.000000000000D+00
    2.201386035156D+04-6.789226531982D-01 9.313225746155D-10-3.000000000000D+00
    5.955221191406D+03 3.489422798157D+00 0.000000000000D+00 0.000000000000D+00
19 21  7 18 22 15  0.0-1.520290970802D-04-9.094947017729D-13 7.920000000000D+04
   -4.834480468750D+03 1.035499572754D-01-1.862645149231D-09 0.000000000000D+00
    2.473892089844D+04 5.874490737915D-01 9.313225746155D-10 3.000000000000D+00
   -3.948338867188D+03 3.559925079346D+00 9.313225746155D-10 0.000000000000D+00
 4 21  7 18 22 15  0.0 9.638164192438D-05 1.818989403546D-12 7.920000000000D+04
   -6.665436035156D+03-2.303871154785D+00 0.000000000000D+00 0.000000000000D+00
    8.556309082031D+03-2.171882629395D+00 0.000000000000D+00 6.000000000000D+00
   -2.305893603516D+04-1.402740478516D-01 2.793967723846D-09 0.000000000000D+00
 5 21  7 18 22 15  0.0 7.557403296232D-05 9.094947017729D-13 7.920000000000D+04
    8.182033203125D+03-1.511269569397D+00 0.000000000000D+00 0.000000000000D+00
    1.804113330078D+04-1.605731964111D+00-0.000000000000D+00 1.000000000000D+00
   -1.604513525391D+04-2.576006889343D+00 9.313225746155D-10 0.000000000000D+00
15 21  7 18 22 15  0.0 1.026140525937D-04-0.000000000000D+00 7.920000000000D+04
   -1.877475537109D+04-1.584627151489D+00-2.793967723846D-09 0.000000000000D+00
    1.200222851562D+04 6.242818832397D-01 1.862645149231D-09 0.000000000000D+00
    1.243479248047D+04-3.001507759094D+00 9.313225746155D-10 0.000000000000D+00
18 21  7 18 22 15  0.0 8.388608694077D-05 9.094947017729D-13 7.920000000000D+04
   -1.035563378906D+04 5.833492279053D-01-2.793967723846D-09 0.000000000000D+00
    2.000794628906D+04-1.541750907898D+00 1.862645149231D-09-3.000000000000D+00
    1.192401025391D+04 3.099428176880D+00 0.000000000000D+00 0.000000000000D+00
